IONOSFERA-M 1           
1 61735U 24199A   26094.28088482  .00000108  00000+0  67712-4 0  9993
2 61735  98.7280 328.1936 0001506  41.9301 318.1992 14.22740713117193
IONOSFERA-M 2           
1 61736U 24199B   26094.24501206  .00000098  00000+0  63580-4 0  9991
2 61736  98.7279 328.0693 0001370 123.7662 236.3647 14.22743542120318
BIOMASS                 
1 63772U 25090A   26094.12116163  .00002974  00000+0  53273-3 0  9997
2 63772  98.0746 282.5093 0001182  95.9744 264.1595 14.67544016 49823
GOSAT-GW (IBUKI GW)     
1 64694U 25141A   26094.28149213  .00001596  00000+0  28976-3 0  9998
2 64694  98.0530  32.8175 0001444  85.5253 274.6117 14.67561356 41000
IONOSFERA-M 3           
1 64876U 25155A   26094.26691661  .00000119  00000+0  74137-4 0  9993
2 64876  98.5968  58.0604 0002486  78.9368 281.2089 14.21473125 35909
IONOSFERA-M 4           
1 64877U 25155B   26094.30186230  .00000119  00000+0  74063-4 0  9998
2 64877  98.5962  58.0125 0001838  76.4150 283.7233 14.21475040 35900
MICROCARB               
1 64899U 25156A   26094.20647211  .00001095  00000+0  18096-3 0  9990
2 64899  97.9852 172.6618 0017234 145.2301 215.0036 14.72245267 37087
CO3D 3                  
1 64900U 25156B   26090.51674821  .00000117  00000+0  85126-5 0  9994
2 64900  97.4337 170.3268 0002068 103.1490 256.9977 15.20193533 37732
CO3D 4                  
1 64901U 25156C   26092.95234169  .00003522  00000+0  16571-3 0  9991
2 64901  97.4325 172.7255 0001404 146.2155 213.9170 15.20213953 38100
CO3D 2                  
1 64902U 25156D   26093.18234204  .00011547  00000+0  51813-3 0  9992
2 64902  97.6520 173.3642 0063279 311.0942  48.4837 15.19537740 38136
CO3D 1                  
1 64903U 25156E   26093.24825721  .00029003  00000+0  13154-2 0  9991
2 64903  97.4393 173.0315 0023021 357.4030   2.7082 15.20542090 38142
SENTINEL-6B             
1 66514U 25264A   26093.91371777 -.00000049  00000+0  53494-4 0  9995
2 66514  66.0402 289.4475 0007887 270.3266  89.6845 12.80930466 17655
CSG-3                   
1 67304U 26001A   26094.27499481  .00000673  00000+0  91025-4 0  9990
2 67304  97.8883 278.9442 0001402  86.8170 273.3203 14.82157675 13514
