[{"OBJECT_NAME":"IONOSFERA-M 1","OBJECT_ID":"2024-199A","EPOCH":"2026-04-04T06:44:28.448448","MEAN_MOTION":14.22740713,"ECCENTRICITY":0.00015061,"INCLINATION":98.728,"RA_OF_ASC_NODE":328.1936,"ARG_OF_PERICENTER":41.9301,"MEAN_ANOMALY":318.1992,"EPHEMERIS_TYPE":0,"CLASSIFICATION_TYPE":"U","NORAD_CAT_ID":61735,"ELEMENT_SET_NO":999,"REV_AT_EPOCH":11719,"BSTAR":6.7711502e-5,"MEAN_MOTION_DOT":1.08e-6,"MEAN_MOTION_DDOT":0},{"OBJECT_NAME":"IONOSFERA-M 2","OBJECT_ID":"2024-199B","EPOCH":"2026-04-04T05:52:49.041984","MEAN_MOTION":14.22743542,"ECCENTRICITY":0.00013702,"INCLINATION":98.7279,"RA_OF_ASC_NODE":328.0693,"ARG_OF_PERICENTER":123.7662,"MEAN_ANOMALY":236.3647,"EPHEMERIS_TYPE":0,"CLASSIFICATION_TYPE":"U","NORAD_CAT_ID":61736,"ELEMENT_SET_NO":999,"REV_AT_EPOCH":12031,"BSTAR":6.3579638e-5,"MEAN_MOTION_DOT":9.8e-7,"MEAN_MOTION_DDOT":0},{"OBJECT_NAME":"BIOMASS","OBJECT_ID":"2025-090A","EPOCH":"2026-04-04T02:54:28.364832","MEAN_MOTION":14.67544016,"ECCENTRICITY":0.0001182,"INCLINATION":98.0746,"RA_OF_ASC_NODE":282.5093,"ARG_OF_PERICENTER":95.9744,"MEAN_ANOMALY":264.1595,"EPHEMERIS_TYPE":0,"CLASSIFICATION_TYPE":"U","NORAD_CAT_ID":63772,"ELEMENT_SET_NO":999,"REV_AT_EPOCH":4982,"BSTAR":0.00053272888,"MEAN_MOTION_DOT":2.974e-5,"MEAN_MOTION_DDOT":0},{"OBJECT_NAME":"GOSAT-GW (IBUKI GW)","OBJECT_ID":"2025-141A","EPOCH":"2026-04-04T06:45:20.920032","MEAN_MOTION":14.67561356,"ECCENTRICITY":0.0001444,"INCLINATION":98.053,"RA_OF_ASC_NODE":32.8175,"ARG_OF_PERICENTER":85.5253,"MEAN_ANOMALY":274.6117,"EPHEMERIS_TYPE":0,"CLASSIFICATION_TYPE":"U","NORAD_CAT_ID":64694,"ELEMENT_SET_NO":999,"REV_AT_EPOCH":4100,"BSTAR":0.00028976384,"MEAN_MOTION_DOT":1.596e-5,"MEAN_MOTION_DDOT":0},{"OBJECT_NAME":"IONOSFERA-M 3","OBJECT_ID":"2025-155A","EPOCH":"2026-04-04T06:24:21.595104","MEAN_MOTION":14.21473125,"ECCENTRICITY":0.00024864,"INCLINATION":98.5968,"RA_OF_ASC_NODE":58.0604,"ARG_OF_PERICENTER":78.9368,"MEAN_ANOMALY":281.2089,"EPHEMERIS_TYPE":0,"CLASSIFICATION_TYPE":"U","NORAD_CAT_ID":64876,"ELEMENT_SET_NO":999,"REV_AT_EPOCH":3590,"BSTAR":7.4136995e-5,"MEAN_MOTION_DOT":1.19e-6,"MEAN_MOTION_DDOT":0},{"OBJECT_NAME":"IONOSFERA-M 4","OBJECT_ID":"2025-155B","EPOCH":"2026-04-04T07:14:40.902720","MEAN_MOTION":14.2147504,"ECCENTRICITY":0.00018384,"INCLINATION":98.5962,"RA_OF_ASC_NODE":58.0125,"ARG_OF_PERICENTER":76.415,"MEAN_ANOMALY":283.7233,"EPHEMERIS_TYPE":0,"CLASSIFICATION_TYPE":"U","NORAD_CAT_ID":64877,"ELEMENT_SET_NO":999,"REV_AT_EPOCH":3590,"BSTAR":7.4062889e-5,"MEAN_MOTION_DOT":1.19e-6,"MEAN_MOTION_DDOT":0},{"OBJECT_NAME":"MICROCARB","OBJECT_ID":"2025-156A","EPOCH":"2026-04-04T04:57:19.190304","MEAN_MOTION":14.72245267,"ECCENTRICITY":0.00172344,"INCLINATION":97.9852,"RA_OF_ASC_NODE":172.6618,"ARG_OF_PERICENTER":145.2301,"MEAN_ANOMALY":215.0036,"EPHEMERIS_TYPE":0,"CLASSIFICATION_TYPE":"U","NORAD_CAT_ID":64899,"ELEMENT_SET_NO":999,"REV_AT_EPOCH":3708,"BSTAR":0.00018096038,"MEAN_MOTION_DOT":1.095e-5,"MEAN_MOTION_DDOT":0},{"OBJECT_NAME":"CO3D 3","OBJECT_ID":"2025-156B","EPOCH":"2026-03-31T12:24:07.045344","MEAN_MOTION":15.20193533,"ECCENTRICITY":0.00020689,"INCLINATION":97.4337,"RA_OF_ASC_NODE":170.3268,"ARG_OF_PERICENTER":103.149,"MEAN_ANOMALY":256.9977,"EPHEMERIS_TYPE":0,"CLASSIFICATION_TYPE":"U","NORAD_CAT_ID":64900,"ELEMENT_SET_NO":999,"REV_AT_EPOCH":3773,"BSTAR":8.512647e-6,"MEAN_MOTION_DOT":1.17e-6,"MEAN_MOTION_DDOT":0},{"OBJECT_NAME":"CO3D 4","OBJECT_ID":"2025-156C","EPOCH":"2026-04-02T22:51:22.322016","MEAN_MOTION":15.20213953,"ECCENTRICITY":0.00014048,"INCLINATION":97.4325,"RA_OF_ASC_NODE":172.7255,"ARG_OF_PERICENTER":146.2155,"MEAN_ANOMALY":213.917,"EPHEMERIS_TYPE":0,"CLASSIFICATION_TYPE":"U","NORAD_CAT_ID":64901,"ELEMENT_SET_NO":999,"REV_AT_EPOCH":3810,"BSTAR":0.00016570552,"MEAN_MOTION_DOT":3.522e-5,"MEAN_MOTION_DDOT":0},{"OBJECT_NAME":"CO3D 2","OBJECT_ID":"2025-156D","EPOCH":"2026-04-03T04:22:34.352256","MEAN_MOTION":15.1953774,"ECCENTRICITY":0.00632796,"INCLINATION":97.652,"RA_OF_ASC_NODE":173.3642,"ARG_OF_PERICENTER":311.0942,"MEAN_ANOMALY":48.4837,"EPHEMERIS_TYPE":0,"CLASSIFICATION_TYPE":"U","NORAD_CAT_ID":64902,"ELEMENT_SET_NO":999,"REV_AT_EPOCH":3813,"BSTAR":0.00051812883,"MEAN_MOTION_DOT":0.00011547,"MEAN_MOTION_DDOT":0},{"OBJECT_NAME":"CO3D 1","OBJECT_ID":"2025-156E","EPOCH":"2026-04-03T05:57:29.422944","MEAN_MOTION":15.2054209,"ECCENTRICITY":0.0023021,"INCLINATION":97.4393,"RA_OF_ASC_NODE":173.0315,"ARG_OF_PERICENTER":357.403,"MEAN_ANOMALY":2.7082,"EPHEMERIS_TYPE":0,"CLASSIFICATION_TYPE":"U","NORAD_CAT_ID":64903,"ELEMENT_SET_NO":999,"REV_AT_EPOCH":3814,"BSTAR":0.0013154,"MEAN_MOTION_DOT":0.00029003,"MEAN_MOTION_DDOT":0},{"OBJECT_NAME":"SENTINEL-6B","OBJECT_ID":"2025-264A","EPOCH":"2026-04-03T21:55:45.215328","MEAN_MOTION":12.80930466,"ECCENTRICITY":0.00078876,"INCLINATION":66.0402,"RA_OF_ASC_NODE":289.4475,"ARG_OF_PERICENTER":270.3266,"MEAN_ANOMALY":89.6845,"EPHEMERIS_TYPE":0,"CLASSIFICATION_TYPE":"U","NORAD_CAT_ID":66514,"ELEMENT_SET_NO":999,"REV_AT_EPOCH":1765,"BSTAR":5.3493532e-5,"MEAN_MOTION_DOT":-4.9e-7,"MEAN_MOTION_DDOT":0},{"OBJECT_NAME":"CSG-3","OBJECT_ID":"2026-001A","EPOCH":"2026-04-04T06:35:59.551584","MEAN_MOTION":14.82157675,"ECCENTRICITY":0.00014029,"INCLINATION":97.8883,"RA_OF_ASC_NODE":278.9442,"ARG_OF_PERICENTER":86.817,"MEAN_ANOMALY":273.3203,"EPHEMERIS_TYPE":0,"CLASSIFICATION_TYPE":"U","NORAD_CAT_ID":67304,"ELEMENT_SET_NO":999,"REV_AT_EPOCH":1351,"BSTAR":9.1024842e-5,"MEAN_MOTION_DOT":6.73e-6,"MEAN_MOTION_DDOT":0}]
